BEIDOU-2 IGSO-5         
1 37948U 11073A   26183.72937883 -.00000128  00000+0  00000+0 0  9990
2 37948  47.6496 271.3544 0114527 222.0502 141.5350  1.00270596 53296
LUCH-5A                 
1 37951U 11074B   26195.62980606 -.00000063  00000+0  00000+0 0  9996
2 37951   8.8213  73.4026 0002603  60.6892 192.1111  1.00272985 53326
BEIDOU-2 G5             
1 38091U 12008A   26195.87062419  .00000047  00000+0  00000+0 0  9991
2 38091   3.6398  69.5147 0007317 268.7503 326.5472  1.00270138 52641
BEIDOU-2 M3             
1 38250U 12018A   26194.49964644 -.00000069  00000+0  00000+0 0  9992
2 38250  55.7337 303.9888 0020987 272.3154  87.4648  1.86229839 96436
BEIDOU-2 M4             
1 38251U 12018B   26194.96895145 -.00000068  00000+0  00000+0 0  9993
2 38251  55.6326 303.1845 0012305 272.1181  87.7646  1.86229381 96446
SES-5                   
1 38652U 12036A   26195.77389397  .00000025  00000+0  00000+0 0  9997
2 38652   0.0471 318.8452 0001894 154.3989 102.9646  1.00271395 44734
BEIDOU-2 M6             
1 38775U 12050B   26193.06769869 -.00000042  00000+0  00000+0 0  9995
2 38775  56.5659  62.0719 0012986   1.2706 358.8013  1.86230839 93779
GSAT-10                 
1 38779U 12051B   26195.78939080 -.00000173  00000+0  00000+0 0  9990
2 38779   0.0928 264.7727 0007375 189.3721 205.6648  1.00272864 50379
NAVSTAR 67 (USA 239)    
1 38833U 12053A   26195.23873730  .00000000  00000+0  00000+0 0  9990
2 38833  53.5895 142.4911 0181954  66.2040 295.6480  2.00567880 99985
GSAT0103 (GALILEO-FM3)  
1 38857U 12055A   26194.28553299 -.00000030  00000+0  00000+0 0  9991
2 38857  55.8215 100.8292 0003756 311.8113  48.1723  1.70473329 85453
BEIDOU-2 G6             
1 38953U 12059A   26195.78956413 -.00000187  00000+0  00000+0 0  9996
2 38953   4.4884  73.2179 0008760 327.1353 260.5160  1.00273816 50184
LUCH-5B                 
1 38977U 12061A   26195.41321913 -.00000150  00000+0  00000+0 0  9996
2 38977  10.5395  49.6048 0003892 146.9492 228.2086  1.00270374 49888
COSMOS 2485 [GLONASS-M] 
1 39155U 13019A   26195.59633437 -.00000008  00000+0  00000+0 0  9997
2 39155  65.4348  72.6854 0022680 231.1740 128.6989  2.13103196102869
NAVSTAR 68 (USA 242)    
1 39166U 13023A   26195.60504784  .00000001  00000+0  00000+0 0  9990
2 39166  54.4832 267.8556 0141389  51.1130 310.2190  2.00563302 96438
IRNSS-1A                
1 39199U 13034A   26191.72043649  .00000047  00000+0  00000+0 0  9995
2 39199  35.7704  63.5328 0017567 183.4462 356.2994  1.00281941 47601
NAVSTAR 69 (USA 248)    
1 39533U 14008A   26195.10826862  .00000006  00000+0  00000+0 0  9996
2 39533  53.6576 148.2217 0084100 231.5400 127.6603  2.00561465 90227
ASTRA 5B                
1 39617U 14011B   26195.84122596  .00000128  00000+0  00000+0 0  9992
2 39617   0.0778 301.3174 0001851 179.3620 138.3429  1.00267805 44942
COSMOS 2492 [GLONASS-M] 
1 39620U 14012A   26195.08591090 -.00000062  00000+0  00000+0 0  9990
2 39620  65.2804 313.0224 0010320 317.8524  42.0766  2.13103240 95812
IRNSS-1B                
1 39635U 14017A   26195.71238845  .00000134  00000+0  00000+0 0  9996
2 39635  28.8764 239.9282 0022292 191.6992 172.5370  1.00275623 45079
LUCH-5V                 
1 39727U 14023A   26195.72041288 -.00000281  00000+0  00000+0 0  9993
2 39727   5.1978  69.4503 0002061  83.9337 133.2571  1.00273815 44635
NAVSTAR 70 (USA 251)    
1 39741U 14026A   26195.38431232 -.00000093  00000+0  00000+0 0  9997
2 39741  56.4837 330.4591 0038131 325.8080  33.9415  2.00558896 89089
COSMOS 2500 [GLONASS-M] 
1 40001U 14032A   26195.72458296 -.00000061  00000+0  00000+0 0  9997
2 40001  65.2150 312.7457 0008224 190.0502 169.9443  2.13105832 94046
NAVSTAR 71 (USA 256)    
1 40105U 14045A   26194.97745005 -.00000029  00000+0  00000+0 0  9993
2 40105  55.3703  87.3975 0034370 118.3669 242.0263  2.00560136 86618
GSAT0201 (GALILEO 5)    
1 40128U 14050A   26194.82721627 -.00000019  00000+0  00000+0 0  9991
2 40128  48.8455 272.3427 1678420 180.4632 179.4259  1.85519408 78812
GSAT0202 (GALILEO 6)    
1 40129U 14050B   26195.08266193 -.00000018  00000+0  00000+0 0  9992
2 40129  48.8629 271.4179 1679589 181.1559 178.4672  1.85520425 80983
IRNSS-1C                
1 40269U 14061A   26195.70643861 -.00000175  00000+0  00000+0 0  9993
2 40269   6.5853  88.4083 0022094   5.4026 176.1158  1.00272415 42967
NAVSTAR 72 (USA 258)    
1 40294U 14068A   26194.84566858 -.00000059  00000+0  00000+0 0  9993
2 40294  57.0059  29.9286 0067407  72.2432 288.5439  2.00553095 85749
COSMOS 2501 [GLONASS-K] 
1 40315U 14075A   26195.04843601  .00000065  00000+0  00000+0 0  9998
2 40315  63.6185 189.4424 0022586 212.6579 147.2095  2.13101105 90428
NAVSTAR 73 (USA 260)    
1 40534U 15013A   26194.98718971  .00000063  00000+0  00000+0 0  9995
2 40534  53.1661 203.0692 0110305  40.3694 320.4736  2.00549700 82369
GSAT0203 (GALILEO 7)    
1 40544U 15017A   26195.19559149 -.00000097  00000+0  00000+0 0  9992
2 40544  56.7773 340.8603 0002610 256.3881 103.5685  1.70476147 69662
GSAT0204 (GALILEO 8)    
1 40545U 15017B   26194.86487460 -.00000096  00000+0  00000+0 0  9991
2 40545  56.7839 340.8880 0002751 234.6933 125.2671  1.70475628 32700
